{
    "links": {
        "self": "http://www.neowsapp.com/rest/v1/neo/3843133?api_key=iIulBulltgU6a56xZRHN4H3l9WmuAYTsLGpBGhQ2"
    },
    "id": "3843133",
    "neo_reference_id": "3843133",
    "name": "(2019 NL2)",
    "designation": "2019 NL2",
    "nasa_jpl_url": "http://ssd.jpl.nasa.gov/sbdb.cgi?sstr=3843133",
    "absolute_magnitude_h": 24.8,
    "estimated_diameter": {
        "kilometers": {
            "estimated_diameter_min": 0.0291443905,
            "estimated_diameter_max": 0.0651688382
        },
        "meters": {
            "estimated_diameter_min": 29.1443904535,
            "estimated_diameter_max": 65.1688382168
        },
        "miles": {
            "estimated_diameter_min": 0.018109479,
            "estimated_diameter_max": 0.0404940262
        },
        "feet": {
            "estimated_diameter_min": 95.6180819754,
            "estimated_diameter_max": 213.8085311752
        }
    },
    "is_potentially_hazardous_asteroid": false,
    "close_approach_data": [
        {
            "close_approach_date": "2019-06-29",
            "close_approach_date_full": "2019-Jun-29 05:16",
            "epoch_date_close_approach": 1561785360000,
            "relative_velocity": {
                "kilometers_per_second": "10.3943176433",
                "kilometers_per_hour": "37419.5435159466",
                "miles_per_hour": "23251.0491363392"
            },
            "miss_distance": {
                "astronomical": "0.0342737814",
                "lunar": "13.3325009646",
                "kilometers": "5127284.694285618",
                "miles": "3185946.9747048084"
            },
            "orbiting_body": "Earth"
        },
        {
            "close_approach_date": "2022-07-18",
            "close_approach_date_full": "2022-Jul-18 02:30",
            "epoch_date_close_approach": 1658111400000,
            "relative_velocity": {
                "kilometers_per_second": "19.7676198087",
                "kilometers_per_hour": "71163.4313114093",
                "miles_per_hour": "44218.1887501365"
            },
            "miss_distance": {
                "astronomical": "0.3552615757",
                "lunar": "138.1967529473",
                "kilometers": "53146375.017563759",
                "miles": "33023626.1100235142"
            },
            "orbiting_body": "Earth"
        }
    ],
    "orbital_data": {
        "orbit_id": "3",
        "orbit_determination_date": "2019-07-23 02:50:19",
        "first_observation_date": "2019-07-04",
        "last_observation_date": "2019-07-09",
        "data_arc_in_days": 5,
        "observations_used": 30,
        "orbit_uncertainty": "8",
        "minimum_orbit_intersection": ".00193908",
        "jupiter_tisserand_invariant": "4.868",
        "epoch_osculation": "2458669.5",
        "eccentricity": ".3577100086261656",
        "semi_major_axis": "1.325476512132319",
        "inclination": "2.060376764207804",
        "ascending_node_longitude": "270.7828186578628",
        "orbital_period": "557.3865455681635",
        "perihelion_distance": ".8513402975436873",
        "perihelion_argument": "295.6683083808093",
        "aphelion_distance": "1.799612726720951",
        "perihelion_time": "2458610.286700839372",
        "mean_anomaly": "38.24417339693253",
        "mean_motion": ".6458713488195871",
        "equinox": "J2000",
        "orbit_class": {
            "orbit_class_type": "APO",
            "orbit_class_description": "Near-Earth asteroid orbits which cross the Earth’s orbit similar to that of 1862 Apollo",
            "orbit_class_range": "a (semi-major axis) > 1.0 AU; q (perihelion) < 1.017 AU"
        }
    },
    "is_sentry_object": false
}